KUIPER-00061            
1 64521U 25134X   25264.58335648 -.01126277  00000+0 -71622-1 0  9990
2 64521  51.8840 258.3852 0008664  65.4832 330.6366 15.11247656  5674
KUIPER-00062            
1 64522U 25134Y   25264.53089725 -.00321257  00000+0 -22619-1 0  9994
2 64522  51.8839 264.8179 0010503  86.4845 273.7329 15.06178275 14972
KUIPER-00063            
1 64523U 25134Z   25264.45191807  .00005663  00000+0  77679-3 0  9997
2 64523  51.9010 266.3266 0004394  40.7292 319.3999 14.79627057 14942
KUIPER-00064            
1 64524U 25134AA  25264.58335648 -.00074648  00000+0 -85565-2 0  9998
2 64524  51.8962 262.9853 0006746 142.5596 255.9274 14.85828219  5832
KUIPER-00065            
1 64525U 25134AB  25264.48378444 -.00003411  00000+0 -41937-3 0  9995
2 64525  51.8991 268.4240 0011925  82.9335 277.2983 14.79775328 14906
KUIPER-00066            
1 64526U 25134AC  25264.26923727  .00019895  00000+0  97244-3 0  9995
2 64526  51.8861 262.3194 0006360  64.7130 295.4507 15.18206763 14980
KUIPER-00069            
1 64816U 25151A   25264.46370977  .00040703  00000+0  10988-2 0  9992
2 64816  51.8785 323.2511 0007678  24.9680 335.1677 15.37343690 11505
KUIPER-00070            
1 64817U 25151B   25264.58335648  .00028129  00000+0  37190-2 0  9994
2 64817  51.8998 333.2749 0009705  58.6893 117.1679 14.79727279  5258
